{
  "type": "FeatureCollection",
  "features": [
    {
      "type": "Feature",
      "properties": {
        "norad_id": 41866,
        "name": "GOES 16",
        "group": "weather",
        "lat": -0.024825499570416524,
        "lon": 62.893990329199475,
        "alt_km": 35797.988975560074,
        "timestamp": "2025-12-23T05:02:11.666793+00:00",
        "meta_object_name": "GOES 16",
        "meta_object_id": "2016-071A",
        "meta_epoch": "2025-12-22T21:13:15.641184",
        "meta_mean_motion": 1.00271947,
        "meta_eccentricity": 0.00030773,
        "meta_inclination": 0.0726,
        "meta_ra_of_asc_node": 102.8377,
        "meta_arg_of_pericenter": 163.5746,
        "meta_mean_anomaly": 38.9196,
        "meta_ephemeris_type": 0,
        "meta_classification_type": "U",
        "meta_norad_cat_id": 41866,
        "meta_element_set_no": 999,
        "meta_rev_at_epoch": 3333,
        "meta_bstar": 0,
        "meta_mean_motion_dot": -7e-07,
        "meta_mean_motion_ddot": 0,
        "tle_line1": "1 41866U 16071A   25356.88420881 -.00000070  00000+0  00000+0 0  9996",
        "tle_line2": "2 41866   0.0726 102.8377 0003077 163.5746  38.9196  1.00271947 33338"
      },
      "geometry": {
        "type": "Point",
        "coordinates": [
          62.893990329199475,
          -0.024825499570416524
        ]
      }
    },
    {
      "type": "Feature",
      "properties": {
        "norad_id": 41882,
        "name": "FENGYUN 4A",
        "group": "weather",
        "lat": -0.9326215383625112,
        "lon": -68.75005210616449,
        "alt_km": 35780.39023623088,
        "timestamp": "2025-12-23T05:02:11.666805+00:00",
        "meta_object_name": "FENGYUN 4A",
        "meta_object_id": "2016-077A",
        "meta_epoch": "2025-12-19T13:51:06.687072",
        "meta_mean_motion": 1.00266581,
        "meta_eccentricity": 0.0004506,
        "meta_inclination": 1.866,
        "meta_ra_of_asc_node": 82.3247,
        "meta_arg_of_pericenter": 142.8816,
        "meta_mean_anomaly": 194.7423,
        "meta_ephemeris_type": 0,
        "meta_classification_type": "U",
        "meta_norad_cat_id": 41882,
        "meta_element_set_no": 999,
        "meta_rev_at_epoch": 3312,
        "meta_bstar": 0,
        "meta_mean_motion_dot": -3.34e-06,
        "meta_mean_motion_ddot": 0,
        "tle_line1": "1 41882U 16077A   25353.57716073 -.00000334  00000+0  00000+0 0  9997",
        "tle_line2": "2 41882   1.8660  82.3247 0004506 142.8816 194.7423  1.00266581 33125"
      },
      "geometry": {
        "type": "Point",
        "coordinates": [
          -68.75005210616449,
          -0.9326215383625112
        ]
      }
    },
    {
      "type": "Feature",
      "properties": {
        "norad_id": 41884,
        "name": "CYGFM05",
        "group": "weather",
        "lat": 29.072303935172076,
        "lon": 105.99608486654557,
        "alt_km": 423.54067853198103,
        "timestamp": "2025-12-23T05:02:11.666816+00:00",
        "meta_object_name": "CYGFM05",
        "meta_object_id": "2016-078A",
        "meta_epoch": "2025-12-22T16:07:46.878240",
        "meta_mean_motion": 15.47988967,
        "meta_eccentricity": 0.00107778,
        "meta_inclination": 34.9607,
        "meta_ra_of_asc_node": 342.2342,
        "meta_arg_of_pericenter": 269.5265,
        "meta_mean_anomaly": 90.4222,
        "meta_ephemeris_type": 0,
        "meta_classification_type": "U",
        "meta_norad_cat_id": 41884,
        "meta_element_set_no": 999,
        "meta_rev_at_epoch": 50130,
        "meta_bstar": 0.00039002131,
        "meta_mean_motion_dot": 0.0002106,
        "meta_mean_motion_ddot": 0,
        "tle_line1": "1 41884U 16078A   25356.67207035  .00021060  00000+0  39002-3 0  9993",
        "tle_line2": "2 41884  34.9607 342.2342 0010777 269.5265  90.4222 15.47988967501305"
      },
      "geometry": {
        "type": "Point",
        "coordinates": [
          105.99608486654557,
          29.072303935172076
        ]
      }
    },
    {
      "type": "Feature",
      "properties": {
        "norad_id": 41885,
        "name": "CYGFM04",
        "group": "weather",
        "lat": 33.47699881686155,
        "lon": 61.858823408220715,
        "alt_km": 414.48598242564094,
        "timestamp": "2025-12-23T05:02:11.666827+00:00",
        "meta_object_name": "CYGFM04",
        "meta_object_id": "2016-078B",
        "meta_epoch": "2025-12-22T22:24:14.337792",
        "meta_mean_motion": 15.50776662,
        "meta_eccentricity": 0.000952,
        "meta_inclination": 34.9355,
        "meta_ra_of_asc_node": 315.0053,
        "meta_arg_of_pericenter": 296.129,
        "meta_mean_anomaly": 63.8452,
        "meta_ephemeris_type": 0,
        "meta_classification_type": "U",
        "meta_norad_cat_id": 41885,
        "meta_element_set_no": 999,
        "meta_rev_at_epoch": 50152,
        "meta_bstar": 0.00040976315,
        "meta_mean_motion_dot": 0.00024424,
        "meta_mean_motion_ddot": 0,
        "tle_line1": "1 41885U 16078B   25356.93349928  .00024424  00000+0  40976-3 0  9990",
        "tle_line2": "2 41885  34.9355 315.0053 0009520 296.1290  63.8452 15.50776662501525"
      },
      "geometry": {
        "type": "Point",
        "coordinates": [
          61.858823408220715,
          33.47699881686155
        ]
      }
    },
    {
      "type": "Feature",
      "properties": {
        "norad_id": 41886,
        "name": "CYGFM02",
        "group": "weather",
        "lat": 5.018170645381353,
        "lon": 124.15580300410814,
        "alt_km": 413.19246044051033,
        "timestamp": "2025-12-23T05:02:11.666837+00:00",
        "meta_object_name": "CYGFM02",
        "meta_object_id": "2016-078C",
        "meta_epoch": "2025-12-22T22:07:40.177056",
        "meta_mean_motion": 15.52186166,
        "meta_eccentricity": 0.00110878,
        "meta_inclination": 34.9443,
        "meta_ra_of_asc_node": 313.2737,
        "meta_arg_of_pericenter": 296.9764,
        "meta_mean_anomaly": 62.9827,
        "meta_ephemeris_type": 0,
        "meta_classification_type": "U",
        "meta_norad_cat_id": 41886,
        "meta_element_set_no": 999,
        "meta_rev_at_epoch": 50165,
        "meta_bstar": 0.0004079927,
        "meta_mean_motion_dot": 0.00025604,
        "meta_mean_motion_ddot": 0,
        "tle_line1": "1 41886U 16078C   25356.92199279  .00025604  00000+0  40799-3 0  9996",
        "tle_line2": "2 41886  34.9443 313.2737 0011087 296.9764  62.9827 15.52186166501654"
      },
      "geometry": {
        "type": "Point",
        "coordinates": [
          124.15580300410814,
          5.018170645381353
        ]
      }
    },
    {
      "type": "Feature",
      "properties": {
        "norad_id": 41887,
        "name": "CYGFM01",
        "group": "weather",
        "lat": -4.763550987882136,
        "lon": 167.84903275154818,
        "alt_km": 418.91357552417594,
        "timestamp": "2025-12-23T05:02:11.666848+00:00",
        "meta_object_name": "CYGFM01",
        "meta_object_id": "2016-078D",
        "meta_epoch": "2025-12-22T15:50:57.301152",
        "meta_mean_motion": 15.48577323,
        "meta_eccentricity": 0.00104892,
        "meta_inclination": 34.9438,
        "meta_ra_of_asc_node": 344.5898,
        "meta_arg_of_pericenter": 261.8761,
        "meta_mean_anomaly": 98.077,
        "meta_ephemeris_type": 0,
        "meta_classification_type": "U",
        "meta_norad_cat_id": 41887,
        "meta_element_set_no": 999,
        "meta_rev_at_epoch": 50124,
        "meta_bstar": 0.00038099603,
        "meta_mean_motion_dot": 0.00021,
        "meta_mean_motion_ddot": 0,
        "tle_line1": "1 41887U 16078D   25356.66038543  .00021000  00000+0  38100-3 0  9993",
        "tle_line2": "2 41887  34.9438 344.5898 0010489 261.8761  98.0770 15.48577323501243"
      },
      "geometry": {
        "type": "Point",
        "coordinates": [
          167.84903275154818,
          -4.763550987882136
        ]
      }
    },
    {
      "type": "Feature",
      "properties": {
        "norad_id": 41888,
        "name": "CYGFM08",
        "group": "weather",
        "lat": -33.92934937038821,
        "lon": -110.57310794453102,
        "alt_km": 411.2490470580069,
        "timestamp": "2025-12-23T05:02:11.666858+00:00",
        "meta_object_name": "CYGFM08",
        "meta_object_id": "2016-078E",
        "meta_epoch": "2025-12-22T07:43:26.360832",
        "meta_mean_motion": 15.49794125,
        "meta_eccentricity": 0.00118989,
        "meta_inclination": 34.9467,
        "meta_ra_of_asc_node": 329.6834,
        "meta_arg_of_pericenter": 281.7617,
        "meta_mean_anomaly": 78.177,
        "meta_ephemeris_type": 0,
        "meta_classification_type": "U",
        "meta_norad_cat_id": 41888,
        "meta_element_set_no": 999,
        "meta_rev_at_epoch": 50142,
        "meta_bstar": 0.00041801893,
        "meta_mean_motion_dot": 0.00024083,
        "meta_mean_motion_ddot": 0,
        "tle_line1": "1 41888U 16078E   25356.32183288  .00024083  00000+0  41802-3 0  9991",
        "tle_line2": "2 41888  34.9467 329.6834 0011898 281.7617  78.1770 15.49794125501427"
      },
      "geometry": {
        "type": "Point",
        "coordinates": [
          -110.57310794453102,
          -33.92934937038821
        ]
      }
    }
  ]
}